STARLINK-31276          
1 59075U 24041B   26068.08359300 -.00001285  00000+0 -37168-4 0  9993
2 59075  42.9993 313.7188 0001800 259.0315 101.0335 15.27576361114236
TEVEL2-8                
1 63239U 25052AF  26068.66815442  .00019130  00000+0  69304-3 0  9993
2 63239  97.4055 324.2923 0008031 124.9191 235.2804 15.28392908 54807
